KUIPER-00104            
1 65142U 25171L   25308.50003471 -.00663971  00000+0 -34121-1 0  9997
2 65142  51.8910 355.8986 0005066  81.6991 118.0083 15.18251375  4631
KUIPER-00105            
1 65143U 25171M   25308.50003471 -.00041284  00000+0 -38935-2 0  9993
2 65143  51.8934 359.8632 0011090  45.4379 194.6501 14.93319169  2352
KUIPER-00106            
1 65144U 25171N   25308.44705139  .00009566  00000+0  86786-3 0  9990
2 65144  51.8950   3.6461 0009525  43.3740 316.7977 14.95858192 14188
KUIPER-00107            
1 65145U 25171P   25308.39407826  .00024592  00000+0  64901-3 0  9998
2 65145  51.8772 354.7890 0005769  66.4324 293.7269 15.38313399 14302
KUIPER-00108            
1 65146U 25171Q   25308.50003471 -.00961249  00000+0 -59769-1 0  9995
2 65146  51.9014 356.8349 0008372  57.3597 351.6263 15.12066358  5893
KUIPER-00109            
1 65147U 25171R   25308.50003471  .00042507  00000+0  17018-2 0  9993
2 65147  51.8810 354.9616 0013200  62.4306 219.1856 15.24569145  5918
KUIPER-00110            
1 65148U 25171S   25308.50003471  .00013812  00000+0  15147-2 0  9992
2 65148  51.8970   1.9207 0010839  56.2254 229.1511 14.87909427  3689
KUIPER-00111            
1 65149U 25171T   25308.46093977  .00003389  00000+0  47356-3 0  9994
2 65149  51.8992   6.8414 0009962  68.5128 291.6895 14.79909204 14134
